0 IRIDIUM 33 DEB
1 36021U 97051VC  13281.47766326  .00004599  00000-0  22160-2 0  4636
2 36021 086.4302 166.7629 0138722 171.9509 308.6768 14.13619701214939
0 IRIDIUM 33 DEB
1 36021U 97051VC  13281.67229895  .00007381  00000-0  35611-2 0  4641
2 36021 086.4321 166.6828 0138622 171.2953 219.2201 14.13621935214969
0 IRIDIUM 33 DEB
1 36021U 97051VC  13283.46048762  .00006339  00000-0  30544-2 0  4655
2 36021 086.4324 165.9678 0138931 165.4636 319.6437 14.13645246215219
0 IRIDIUM 33 DEB
1 36021U 97051VC  13285.44235306  .00005233  00000-0  25173-2 0  4662
2 36021 086.4321 165.1753 0139529 159.1654 325.7016 14.13661152215491
0 IRIDIUM 33 DEB
1 36021U 97051VC  13286.62721970  .00005260  00000-0  25293-2 0  4674
2 36021 086.4316 164.7018 0139720 155.3985 235.7529 14.13671466215669
0 IRIDIUM 33 DEB
1 36021U 97051VC  13287.90775816  .00007174  00000-0  34506-2 0  4688
2 36021 086.4318 164.1888 0139898 151.3526 272.7294 14.13684435215843
0 IRIDIUM 33 DEB
1 36021U 97051VC  13289.40632179  .00007275  00000-0  34970-2 0  4697
2 36021 086.4317 163.5892 0140057 146.5948 339.4044 14.13704154216052
0 IRIDIUM 33 DEB
1 36021U 97051VC  13292.44839360  .00006517  00000-0  31271-2 0  4707
2 36021 086.4311 162.3699 0140663 136.9361 341.7849 14.13738966216487
0 IRIDIUM 33 DEB
1 36021U 97051VC  13294.08323147  .00006896  00000-0  33065-2 0  4714
2 36021 086.4309 161.7159 0141047 131.7463 022.3189 14.13756881216712
0 IRIDIUM 33 DEB
1 36021U 97051VC  13295.42121679  .00007552  00000-0  36189-2 0  4720
2 36021 086.4307 161.1805 0141402 127.5003 352.0964 14.13771837216903
